<?xml version="1.0" encoding="utf-8"?>
<gpx xmlns="http://www.topografix.com/GPX/1/1" xmlns:xsi="http://www.w3.org/2001/XMLSchema-instance" creator="Trackserver 5.1-20250415" version="1.1" xsi:schemaLocation="http://www.topografix.com/GPX/1/1 http://www.topografix.com/GPX/1/1/gpx.xsd">
  <metadata>
    <author>
      <name><![CDATA[surledoud]]></name>
    </author>
    <link href="https://surlereservoir.fr/"/>
  </metadata>
  <trk>
    <name><![CDATA[OsmAnd 2026-09-08 18]]></name>
    <trkseg>
      <trkpt lat="49.616436" lon="0.743792">
        <ele>65.8</ele>
        <time>2026-09-08T16:14:31+00:00</time>
      </trkpt>
      <trkpt lat="49.616398" lon="0.743874">
        <ele>179.6</ele>
        <time>2026-09-08T16:14:47+00:00</time>
      </trkpt>
      <trkpt lat="49.616425" lon="0.743985">
        <ele>185.3</ele>
        <time>2026-09-08T16:15:00+00:00</time>
      </trkpt>
      <trkpt lat="49.616348" lon="0.743804">
        <ele>188.8</ele>
        <time>2026-09-08T16:15:17+00:00</time>
      </trkpt>
      <trkpt lat="49.616314" lon="0.743788">
        <ele>188.9</ele>
        <time>2026-09-08T16:15:38+00:00</time>
      </trkpt>
      <trkpt lat="49.61631" lon="0.743818">
        <ele>188.6</ele>
        <time>2026-09-08T16:15:56+00:00</time>
      </trkpt>
      <trkpt lat="49.616302" lon="0.74378">
        <ele>187.9</ele>
        <time>2026-09-08T16:16:31+00:00</time>
      </trkpt>
      <trkpt lat="49.615883" lon="0.743793">
        <ele>188</ele>
        <time>2026-09-08T16:17:03+00:00</time>
      </trkpt>
      <trkpt lat="49.615139" lon="0.744141">
        <ele>187.9</ele>
        <time>2026-09-08T16:17:32+00:00</time>
      </trkpt>
      <trkpt lat="49.614616" lon="0.742592">
        <ele>186.1</ele>
        <time>2026-09-08T16:18:02+00:00</time>
      </trkpt>
      <trkpt lat="49.61348" lon="0.739757">
        <ele>184</ele>
        <time>2026-09-08T16:18:33+00:00</time>
      </trkpt>
      <trkpt lat="49.611275" lon="0.734209">
        <ele>181.4</ele>
        <time>2026-09-08T16:19:03+00:00</time>
      </trkpt>
      <trkpt lat="49.610435" lon="0.733186">
        <ele>181.5</ele>
        <time>2026-09-08T16:19:27+00:00</time>
      </trkpt>
      <trkpt lat="49.609371" lon="0.7347">
        <ele>183.6</ele>
        <time>2026-09-08T16:19:39+00:00</time>
      </trkpt>
      <trkpt lat="49.607212" lon="0.738246">
        <ele>181.2</ele>
        <time>2026-09-08T16:20:02+00:00</time>
      </trkpt>
      <trkpt lat="49.606888" lon="0.739998">
        <ele>180.2</ele>
        <time>2026-09-08T16:20:14+00:00</time>
      </trkpt>
      <trkpt lat="49.606644" lon="0.741043">
        <ele>179.6</ele>
        <time>2026-09-08T16:20:34+00:00</time>
      </trkpt>
      <trkpt lat="49.606392" lon="0.747148">
        <ele>178.2</ele>
        <time>2026-09-08T16:20:58+00:00</time>
      </trkpt>
      <trkpt lat="49.605438" lon="0.750113">
        <ele>177.7</ele>
        <time>2026-09-08T16:21:09+00:00</time>
      </trkpt>
      <trkpt lat="49.604343" lon="0.75723">
        <ele>175.8</ele>
        <time>2026-09-08T16:21:33+00:00</time>
      </trkpt>
      <trkpt lat="49.605106" lon="0.761784">
        <ele>177.2</ele>
        <time>2026-09-08T16:21:45+00:00</time>
      </trkpt>
      <trkpt lat="49.6073" lon="0.767477">
        <ele>181.7</ele>
        <time>2026-09-08T16:22:05+00:00</time>
      </trkpt>
      <trkpt lat="49.608547" lon="0.769414">
        <ele>184.6</ele>
        <time>2026-09-08T16:22:30+00:00</time>
      </trkpt>
      <trkpt lat="49.609047" lon="0.770098">
        <ele>186.5</ele>
        <time>2026-09-08T16:22:36+00:00</time>
      </trkpt>
      <trkpt lat="49.611008" lon="0.775047">
        <ele>187.6</ele>
        <time>2026-09-08T16:23:11+00:00</time>
      </trkpt>
      <trkpt lat="49.612106" lon="0.774816">
        <ele>186</ele>
        <time>2026-09-08T16:23:46+00:00</time>
      </trkpt>
      <trkpt lat="49.613918" lon="0.773504">
        <ele>186.1</ele>
        <time>2026-09-08T16:24:16+00:00</time>
      </trkpt>
      <trkpt lat="49.615959" lon="0.775443">
        <ele>188.9</ele>
        <time>2026-09-08T16:24:47+00:00</time>
      </trkpt>
      <trkpt lat="49.616066" lon="0.775929">
        <ele>191.3</ele>
        <time>2026-09-08T16:25:17+00:00</time>
      </trkpt>
      <trkpt lat="49.616062" lon="0.775823">
        <ele>191.2</ele>
        <time>2026-09-08T16:25:48+00:00</time>
      </trkpt>
      <trkpt lat="49.616062" lon="0.775695">
        <ele>191</ele>
        <time>2026-09-08T16:26:12+00:00</time>
      </trkpt>
      <trkpt lat="49.616062" lon="0.775695">
        <ele>190.8</ele>
        <time>2026-09-08T16:26:23+00:00</time>
      </trkpt>
      <trkpt lat="49.61615" lon="0.775854">
        <ele>191.8</ele>
        <time>2026-09-08T16:26:48+00:00</time>
      </trkpt>
      <trkpt lat="49.616138" lon="0.775832">
        <ele>194</ele>
        <time>2026-09-08T16:27:29+00:00</time>
      </trkpt>
      <trkpt lat="49.616131" lon="0.77583">
        <ele>197</ele>
        <time>2026-09-08T16:27:49+00:00</time>
      </trkpt>
      <trkpt lat="49.616112" lon="0.775765">
        <ele>200.2</ele>
        <time>2026-09-08T16:28:19+00:00</time>
      </trkpt>
      <trkpt lat="49.616138" lon="0.77575">
        <ele>202.6</ele>
        <time>2026-09-08T16:28:48+00:00</time>
      </trkpt>
      <trkpt lat="49.616138" lon="0.775723">
        <ele>203.8</ele>
        <time>2026-09-08T16:29:20+00:00</time>
      </trkpt>
      <trkpt lat="49.616112" lon="0.775712">
        <ele>203.7</ele>
        <time>2026-09-08T16:29:50+00:00</time>
      </trkpt>
      <trkpt lat="49.616138" lon="0.775773">
        <ele>203.8</ele>
        <time>2026-09-08T16:30:14+00:00</time>
      </trkpt>
      <trkpt lat="49.616131" lon="0.77578">
        <ele>203.9</ele>
        <time>2026-09-08T16:30:22+00:00</time>
      </trkpt>
      <trkpt lat="49.616123" lon="0.775814">
        <ele>203.5</ele>
        <time>2026-09-08T16:30:56+00:00</time>
      </trkpt>
      <trkpt lat="49.616081" lon="0.775803">
        <ele>203.2</ele>
        <time>2026-09-08T16:31:31+00:00</time>
      </trkpt>
      <trkpt lat="49.616081" lon="0.775849">
        <ele>205.3</ele>
        <time>2026-09-08T16:32:01+00:00</time>
      </trkpt>
      <trkpt lat="49.616062" lon="0.775815">
        <ele>207.5</ele>
        <time>2026-09-08T16:32:31+00:00</time>
      </trkpt>
      <trkpt lat="49.616066" lon="0.775727">
        <ele>210</ele>
        <time>2026-09-08T16:33:01+00:00</time>
      </trkpt>
      <trkpt lat="49.616074" lon="0.775762">
        <ele>211.9</ele>
        <time>2026-09-08T16:33:32+00:00</time>
      </trkpt>
      <trkpt lat="49.6161" lon="0.775774">
        <ele>212.9</ele>
        <time>2026-09-08T16:33:56+00:00</time>
      </trkpt>
      <trkpt lat="49.616093" lon="0.775767">
        <ele>213.6</ele>
        <time>2026-09-08T16:34:04+00:00</time>
      </trkpt>
      <trkpt lat="49.616074" lon="0.77581">
        <ele>213.3</ele>
        <time>2026-09-08T16:34:38+00:00</time>
      </trkpt>
      <trkpt lat="49.616066" lon="0.775756">
        <ele>213.2</ele>
        <time>2026-09-08T16:35:13+00:00</time>
      </trkpt>
      <trkpt lat="49.616047" lon="0.775743">
        <ele>214.3</ele>
        <time>2026-09-08T16:35:43+00:00</time>
      </trkpt>
      <trkpt lat="49.616035" lon="0.775674">
        <ele>214.9</ele>
        <time>2026-09-08T16:36:14+00:00</time>
      </trkpt>
      <trkpt lat="49.616104" lon="0.775715">
        <ele>216</ele>
        <time>2026-09-08T16:36:44+00:00</time>
      </trkpt>
      <trkpt lat="49.616131" lon="0.775832">
        <ele>215.5</ele>
        <time>2026-09-08T16:37:14+00:00</time>
      </trkpt>
      <trkpt lat="49.616158" lon="0.775852">
        <ele>216.6</ele>
        <time>2026-09-08T16:37:39+00:00</time>
      </trkpt>
      <trkpt lat="49.616161" lon="0.775859">
        <ele>217.1</ele>
        <time>2026-09-08T16:37:50+00:00</time>
      </trkpt>
      <trkpt lat="49.616138" lon="0.775855">
        <ele>216</ele>
        <time>2026-09-08T16:38:15+00:00</time>
      </trkpt>
      <trkpt lat="49.616112" lon="0.775887">
        <ele>214.6</ele>
        <time>2026-09-08T16:38:56+00:00</time>
      </trkpt>
      <trkpt lat="49.616123" lon="0.775893">
        <ele>213.1</ele>
        <time>2026-09-08T16:39:27+00:00</time>
      </trkpt>
      <trkpt lat="49.616123" lon="0.775859">
        <ele>211.5</ele>
        <time>2026-09-08T16:39:47+00:00</time>
      </trkpt>
      <trkpt lat="49.616112" lon="0.775826">
        <ele>210.6</ele>
        <time>2026-09-08T16:40:22+00:00</time>
      </trkpt>
      <trkpt lat="49.616131" lon="0.775779">
        <ele>208.4</ele>
        <time>2026-09-08T16:40:52+00:00</time>
      </trkpt>
      <trkpt lat="49.616123" lon="0.775777">
        <ele>206.8</ele>
        <time>2026-09-08T16:41:23+00:00</time>
      </trkpt>
      <trkpt lat="49.616123" lon="0.775859">
        <ele>206.4</ele>
        <time>2026-09-08T16:41:47+00:00</time>
      </trkpt>
      <trkpt lat="49.616104" lon="0.775883">
        <ele>205.5</ele>
        <time>2026-09-08T16:42:28+00:00</time>
      </trkpt>
      <trkpt lat="49.616081" lon="0.775888">
        <ele>205.2</ele>
        <time>2026-09-08T16:42:59+00:00</time>
      </trkpt>
      <trkpt lat="49.6161" lon="0.775845">
        <ele>205.9</ele>
        <time>2026-09-08T16:43:23+00:00</time>
      </trkpt>
      <trkpt lat="49.616119" lon="0.775763">
        <ele>206.2</ele>
        <time>2026-09-08T16:44:05+00:00</time>
      </trkpt>
      <trkpt lat="49.616123" lon="0.775783">
        <ele>205.7</ele>
        <time>2026-09-08T16:44:40+00:00</time>
      </trkpt>
      <trkpt lat="49.616177" lon="0.775787">
        <ele>205.8</ele>
        <time>2026-09-08T16:45:09+00:00</time>
      </trkpt>
      <trkpt lat="49.616161" lon="0.775827">
        <ele>205.1</ele>
        <time>2026-09-08T16:45:40+00:00</time>
      </trkpt>
      <trkpt lat="49.616131" lon="0.775881">
        <ele>203</ele>
        <time>2026-09-08T16:46:10+00:00</time>
      </trkpt>
      <trkpt lat="49.616119" lon="0.775896">
        <ele>201.1</ele>
        <time>2026-09-08T16:46:41+00:00</time>
      </trkpt>
      <trkpt lat="49.616158" lon="0.775833">
        <ele>199.8</ele>
        <time>2026-09-08T16:47:04+00:00</time>
      </trkpt>
      <trkpt lat="49.616081" lon="0.775895">
        <ele>199.2</ele>
        <time>2026-09-08T16:47:47+00:00</time>
      </trkpt>
      <trkpt lat="49.616123" lon="0.775926">
        <ele>200.1</ele>
        <time>2026-09-08T16:48:22+00:00</time>
      </trkpt>
      <trkpt lat="49.616131" lon="0.775904">
        <ele>200.1</ele>
        <time>2026-09-08T16:48:52+00:00</time>
      </trkpt>
      <trkpt lat="49.616104" lon="0.77591">
        <ele>200.2</ele>
        <time>2026-09-08T16:49:23+00:00</time>
      </trkpt>
      <trkpt lat="49.616074" lon="0.776004">
        <ele>199.6</ele>
        <time>2026-09-08T16:49:53+00:00</time>
      </trkpt>
      <trkpt lat="49.616131" lon="0.77597">
        <ele>199.8</ele>
        <time>2026-09-08T16:50:23+00:00</time>
      </trkpt>
      <trkpt lat="49.616138" lon="0.77601">
        <ele>198.1</ele>
        <time>2026-09-08T16:50:48+00:00</time>
      </trkpt>
      <trkpt lat="49.616161" lon="0.775921">
        <ele>195.6</ele>
        <time>2026-09-08T16:51:29+00:00</time>
      </trkpt>
      <trkpt lat="49.616169" lon="0.775838">
        <ele>195</ele>
        <time>2026-09-08T16:52:04+00:00</time>
      </trkpt>
      <trkpt lat="49.616177" lon="0.775842">
        <ele>196</ele>
        <time>2026-09-08T16:52:33+00:00</time>
      </trkpt>
      <trkpt lat="49.616177" lon="0.775842">
        <ele>196.8</ele>
        <time>2026-09-08T16:53:05+00:00</time>
      </trkpt>
      <trkpt lat="49.61615" lon="0.775762">
        <ele>198.7</ele>
        <time>2026-09-08T16:53:35+00:00</time>
      </trkpt>
      <trkpt lat="49.616138" lon="0.775863">
        <ele>200</ele>
        <time>2026-09-08T16:54:06+00:00</time>
      </trkpt>
      <trkpt lat="49.616112" lon="0.775813">
        <ele>202.1</ele>
        <time>2026-09-08T16:54:30+00:00</time>
      </trkpt>
      <trkpt lat="49.616123" lon="0.77583">
        <ele>204.9</ele>
        <time>2026-09-08T16:54:41+00:00</time>
      </trkpt>
      <trkpt lat="49.616104" lon="0.775868">
        <ele>207</ele>
        <time>2026-09-08T16:55:06+00:00</time>
      </trkpt>
      <trkpt lat="49.616112" lon="0.77591">
        <ele>207.2</ele>
        <time>2026-09-08T16:55:47+00:00</time>
      </trkpt>
      <trkpt lat="49.616112" lon="0.775912">
        <ele>209.1</ele>
        <time>2026-09-08T16:56:07+00:00</time>
      </trkpt>
      <trkpt lat="49.616112" lon="0.775903">
        <ele>210.3</ele>
        <time>2026-09-08T16:56:37+00:00</time>
      </trkpt>
      <trkpt lat="49.616119" lon="0.775949">
        <ele>211.9</ele>
        <time>2026-09-08T16:57:07+00:00</time>
      </trkpt>
      <trkpt lat="49.61615" lon="0.775992">
        <ele>212.9</ele>
        <time>2026-09-08T16:57:38+00:00</time>
      </trkpt>
      <trkpt lat="49.616161" lon="0.775961">
        <ele>210.7</ele>
        <time>2026-09-08T16:58:07+00:00</time>
      </trkpt>
      <trkpt lat="49.616123" lon="0.775925">
        <ele>208</ele>
        <time>2026-09-08T16:58:32+00:00</time>
      </trkpt>
      <trkpt lat="49.616119" lon="0.775925">
        <ele>204</ele>
        <time>2026-09-08T16:59:03+00:00</time>
      </trkpt>
      <trkpt lat="49.616104" lon="0.775891">
        <ele>202.2</ele>
        <time>2026-09-08T16:59:33+00:00</time>
      </trkpt>
    </trkseg>
  </trk>
  <trk>
    <name><![CDATA[OsmAnd 2026-09-08 19]]></name>
    <trkseg>
      <trkpt lat="49.616093" lon="0.775889">
        <ele>200.4</ele>
        <time>2026-09-08T17:00:04+00:00</time>
      </trkpt>
      <trkpt lat="49.616081" lon="0.775885">
        <ele>198.8</ele>
        <time>2026-09-08T17:00:34+00:00</time>
      </trkpt>
      <trkpt lat="49.616081" lon="0.775863">
        <ele>197.2</ele>
        <time>2026-09-08T17:01:03+00:00</time>
      </trkpt>
      <trkpt lat="49.616112" lon="0.775979">
        <ele>194.4</ele>
        <time>2026-09-08T17:01:28+00:00</time>
      </trkpt>
      <trkpt lat="49.6161" lon="0.776006">
        <ele>192.6</ele>
        <time>2026-09-08T17:01:35+00:00</time>
      </trkpt>
      <trkpt lat="49.616104" lon="0.775982">
        <ele>192.1</ele>
        <time>2026-09-08T17:02:10+00:00</time>
      </trkpt>
      <trkpt lat="49.616093" lon="0.775945">
        <ele>191.4</ele>
        <time>2026-09-08T17:02:41+00:00</time>
      </trkpt>
      <trkpt lat="49.616085" lon="0.775921">
        <ele>190.8</ele>
        <time>2026-09-08T17:03:05+00:00</time>
      </trkpt>
      <trkpt lat="49.616093" lon="0.77594">
        <ele>190.8</ele>
        <time>2026-09-08T17:03:34+00:00</time>
      </trkpt>
      <trkpt lat="49.616085" lon="0.775949">
        <ele>193.7</ele>
        <time>2026-09-08T17:04:05+00:00</time>
      </trkpt>
      <trkpt lat="49.616131" lon="0.775851">
        <ele>195.5</ele>
        <time>2026-09-08T17:04:36+00:00</time>
      </trkpt>
      <trkpt lat="49.616207" lon="0.775844">
        <ele>196.3</ele>
        <time>2026-09-08T17:05:07+00:00</time>
      </trkpt>
      <trkpt lat="49.616131" lon="0.775868">
        <ele>196.6</ele>
        <time>2026-09-08T17:05:37+00:00</time>
      </trkpt>
      <trkpt lat="49.616138" lon="0.775876">
        <ele>196.6</ele>
        <time>2026-09-08T17:06:01+00:00</time>
      </trkpt>
      <trkpt lat="49.61615" lon="0.77591">
        <ele>196.7</ele>
        <time>2026-09-08T17:06:09+00:00</time>
      </trkpt>
      <trkpt lat="49.616169" lon="0.775946">
        <ele>196.6</ele>
        <time>2026-09-08T17:06:43+00:00</time>
      </trkpt>
      <trkpt lat="49.616161" lon="0.775922">
        <ele>196.4</ele>
        <time>2026-09-08T17:07:13+00:00</time>
      </trkpt>
      <trkpt lat="49.616142" lon="0.775895">
        <ele>195.4</ele>
        <time>2026-09-08T17:07:37+00:00</time>
      </trkpt>
      <trkpt lat="49.616119" lon="0.775868">
        <ele>194</ele>
        <time>2026-09-08T17:08:19+00:00</time>
      </trkpt>
      <trkpt lat="49.616131" lon="0.775864">
        <ele>194.5</ele>
        <time>2026-09-08T17:08:54+00:00</time>
      </trkpt>
      <trkpt lat="49.616131" lon="0.775882">
        <ele>196.2</ele>
        <time>2026-09-08T17:09:23+00:00</time>
      </trkpt>
      <trkpt lat="49.616142" lon="0.775943">
        <ele>198</ele>
        <time>2026-09-08T17:09:54+00:00</time>
      </trkpt>
      <trkpt lat="49.61615" lon="0.775858">
        <ele>200.4</ele>
        <time>2026-09-08T17:10:25+00:00</time>
      </trkpt>
      <trkpt lat="49.616169" lon="0.775905">
        <ele>202.7</ele>
        <time>2026-09-08T17:10:55+00:00</time>
      </trkpt>
      <trkpt lat="49.616196" lon="0.775924">
        <ele>204.4</ele>
        <time>2026-09-08T17:11:20+00:00</time>
      </trkpt>
      <trkpt lat="49.616158" lon="0.775926">
        <ele>205.7</ele>
        <time>2026-09-08T17:12:01+00:00</time>
      </trkpt>
      <trkpt lat="49.616119" lon="0.775883">
        <ele>205.6</ele>
        <time>2026-09-08T17:12:35+00:00</time>
      </trkpt>
      <trkpt lat="49.616112" lon="0.775854">
        <ele>205.4</ele>
        <time>2026-09-08T17:13:06+00:00</time>
      </trkpt>
      <trkpt lat="49.616123" lon="0.775864">
        <ele>205.9</ele>
        <time>2026-09-08T17:13:37+00:00</time>
      </trkpt>
      <trkpt lat="49.616123" lon="0.775875">
        <ele>206.2</ele>
        <time>2026-09-08T17:14:07+00:00</time>
      </trkpt>
      <trkpt lat="49.616142" lon="0.77586">
        <ele>206.6</ele>
        <time>2026-09-08T17:14:38+00:00</time>
      </trkpt>
      <trkpt lat="49.61615" lon="0.775844">
        <ele>206.9</ele>
        <time>2026-09-08T17:15:02+00:00</time>
      </trkpt>
      <trkpt lat="49.616158" lon="0.775803">
        <ele>207.3</ele>
        <time>2026-09-08T17:15:32+00:00</time>
      </trkpt>
      <trkpt lat="49.61615" lon="0.775798">
        <ele>207.6</ele>
        <time>2026-09-08T17:16:03+00:00</time>
      </trkpt>
      <trkpt lat="49.616123" lon="0.775813">
        <ele>208.4</ele>
        <time>2026-09-08T17:16:33+00:00</time>
      </trkpt>
      <trkpt lat="49.616142" lon="0.77585">
        <ele>209.3</ele>
        <time>2026-09-08T17:17:04+00:00</time>
      </trkpt>
      <trkpt lat="49.616142" lon="0.77585">
        <ele>210</ele>
        <time>2026-09-08T17:17:33+00:00</time>
      </trkpt>
      <trkpt lat="49.616142" lon="0.775934">
        <ele>210</ele>
        <time>2026-09-08T17:17:58+00:00</time>
      </trkpt>
      <trkpt lat="49.616142" lon="0.775934">
        <ele>210.1</ele>
        <time>2026-09-08T17:18:06+00:00</time>
      </trkpt>
      <trkpt lat="49.616142" lon="0.775934">
        <ele>210.1</ele>
        <time>2026-09-08T17:18:40+00:00</time>
      </trkpt>
      <trkpt lat="49.616131" lon="0.775917">
        <ele>208.7</ele>
        <time>2026-09-08T17:19:10+00:00</time>
      </trkpt>
      <trkpt lat="49.616131" lon="0.775867">
        <ele>208</ele>
        <time>2026-09-08T17:19:34+00:00</time>
      </trkpt>
      <trkpt lat="49.616158" lon="0.775882">
        <ele>207</ele>
        <time>2026-09-08T17:20:05+00:00</time>
      </trkpt>
      <trkpt lat="49.616158" lon="0.775905">
        <ele>206.8</ele>
        <time>2026-09-08T17:20:35+00:00</time>
      </trkpt>
      <trkpt lat="49.616177" lon="0.775908">
        <ele>206.7</ele>
        <time>2026-09-08T17:21:06+00:00</time>
      </trkpt>
      <trkpt lat="49.616199" lon="0.775848">
        <ele>206.8</ele>
        <time>2026-09-08T17:21:36+00:00</time>
      </trkpt>
      <trkpt lat="49.616199" lon="0.775848">
        <ele>206.8</ele>
        <time>2026-09-08T17:22:06+00:00</time>
      </trkpt>
      <trkpt lat="49.616199" lon="0.775848">
        <ele>206.8</ele>
        <time>2026-09-08T17:22:31+00:00</time>
      </trkpt>
      <trkpt lat="49.616199" lon="0.775848">
        <ele>206.8</ele>
        <time>2026-09-08T17:22:38+00:00</time>
      </trkpt>
      <trkpt lat="49.616142" lon="0.775872">
        <ele>207.8</ele>
        <time>2026-09-08T17:23:12+00:00</time>
      </trkpt>
      <trkpt lat="49.616161" lon="0.77593">
        <ele>208.5</ele>
        <time>2026-09-08T17:23:43+00:00</time>
      </trkpt>
      <trkpt lat="49.616158" lon="0.775943">
        <ele>208.5</ele>
        <time>2026-09-08T17:24:07+00:00</time>
      </trkpt>
      <trkpt lat="49.616158" lon="0.775943">
        <ele>208.5</ele>
        <time>2026-09-08T17:24:19+00:00</time>
      </trkpt>
      <trkpt lat="49.616158" lon="0.77595">
        <ele>207.8</ele>
        <time>2026-09-08T17:24:43+00:00</time>
      </trkpt>
      <trkpt lat="49.616158" lon="0.775872">
        <ele>206.5</ele>
        <time>2026-09-08T17:25:24+00:00</time>
      </trkpt>
      <trkpt lat="49.616169" lon="0.775902">
        <ele>204.9</ele>
        <time>2026-09-08T17:25:44+00:00</time>
      </trkpt>
      <trkpt lat="49.616169" lon="0.775895">
        <ele>204.3</ele>
        <time>2026-09-08T17:26:14+00:00</time>
      </trkpt>
      <trkpt lat="49.616123" lon="0.775851">
        <ele>203.6</ele>
        <time>2026-09-08T17:26:45+00:00</time>
      </trkpt>
      <trkpt lat="49.616142" lon="0.775843">
        <ele>203.2</ele>
        <time>2026-09-08T17:27:15+00:00</time>
      </trkpt>
      <trkpt lat="49.616161" lon="0.775843">
        <ele>203.3</ele>
        <time>2026-09-08T17:27:45+00:00</time>
      </trkpt>
      <trkpt lat="49.61615" lon="0.775866">
        <ele>204</ele>
        <time>2026-09-08T17:28:10+00:00</time>
      </trkpt>
      <trkpt lat="49.61615" lon="0.775866">
        <ele>204.6</ele>
        <time>2026-09-08T17:28:21+00:00</time>
      </trkpt>
      <trkpt lat="49.616138" lon="0.775857">
        <ele>204.5</ele>
        <time>2026-09-08T17:28:44+00:00</time>
      </trkpt>
      <trkpt lat="49.616138" lon="0.775857">
        <ele>204.3</ele>
        <time>2026-09-08T17:28:56+00:00</time>
      </trkpt>
      <trkpt lat="49.616158" lon="0.77581">
        <ele>204.3</ele>
        <time>2026-09-08T17:29:16+00:00</time>
      </trkpt>
      <trkpt lat="49.61615" lon="0.775828">
        <ele>204.6</ele>
        <time>2026-09-08T17:29:41+00:00</time>
      </trkpt>
      <trkpt lat="49.616161" lon="0.775889">
        <ele>204.4</ele>
        <time>2026-09-08T17:30:22+00:00</time>
      </trkpt>
      <trkpt lat="49.616158" lon="0.775919">
        <ele>204</ele>
        <time>2026-09-08T17:30:57+00:00</time>
      </trkpt>
      <trkpt lat="49.616123" lon="0.775915">
        <ele>203.2</ele>
        <time>2026-09-08T17:31:27+00:00</time>
      </trkpt>
      <trkpt lat="49.616119" lon="0.775943">
        <ele>202.7</ele>
        <time>2026-09-08T17:31:58+00:00</time>
      </trkpt>
      <trkpt lat="49.616131" lon="0.775959">
        <ele>201.7</ele>
        <time>2026-09-08T17:32:28+00:00</time>
      </trkpt>
      <trkpt lat="49.616196" lon="0.775938">
        <ele>201.3</ele>
        <time>2026-09-08T17:32:59+00:00</time>
      </trkpt>
      <trkpt lat="49.616196" lon="0.775938">
        <ele>200.9</ele>
        <time>2026-09-08T17:33:23+00:00</time>
      </trkpt>
      <trkpt lat="49.616161" lon="0.775877">
        <ele>202.1</ele>
        <time>2026-09-08T17:34:05+00:00</time>
      </trkpt>
      <trkpt lat="49.616169" lon="0.775837">
        <ele>203.9</ele>
        <time>2026-09-08T17:34:39+00:00</time>
      </trkpt>
      <trkpt lat="49.616169" lon="0.775843">
        <ele>204.7</ele>
        <time>2026-09-08T17:35:10+00:00</time>
      </trkpt>
      <trkpt lat="49.616169" lon="0.775843">
        <ele>205.3</ele>
        <time>2026-09-08T17:35:40+00:00</time>
      </trkpt>
      <trkpt lat="49.616188" lon="0.775843">
        <ele>205.1</ele>
        <time>2026-09-08T17:36:10+00:00</time>
      </trkpt>
      <trkpt lat="49.616188" lon="0.775843">
        <ele>205</ele>
        <time>2026-09-08T17:36:41+00:00</time>
      </trkpt>
      <trkpt lat="49.616188" lon="0.775843">
        <ele>204.8</ele>
        <time>2026-09-08T17:37:05+00:00</time>
      </trkpt>
      <trkpt lat="49.616199" lon="0.775866">
        <ele>204.1</ele>
        <time>2026-09-08T17:37:47+00:00</time>
      </trkpt>
      <trkpt lat="49.616226" lon="0.775905">
        <ele>203.7</ele>
        <time>2026-09-08T17:38:21+00:00</time>
      </trkpt>
      <trkpt lat="49.616238" lon="0.775919">
        <ele>203.2</ele>
        <time>2026-09-08T17:38:52+00:00</time>
      </trkpt>
      <trkpt lat="49.616253" lon="0.775959">
        <ele>203.5</ele>
        <time>2026-09-08T17:39:21+00:00</time>
      </trkpt>
      <trkpt lat="49.616207" lon="0.775982">
        <ele>203</ele>
        <time>2026-09-08T17:39:53+00:00</time>
      </trkpt>
      <trkpt lat="49.616207" lon="0.775967">
        <ele>202.3</ele>
        <time>2026-09-08T17:40:23+00:00</time>
      </trkpt>
      <trkpt lat="49.616207" lon="0.775989">
        <ele>202.1</ele>
        <time>2026-09-08T17:40:46+00:00</time>
      </trkpt>
      <trkpt lat="49.616234" lon="0.776006">
        <ele>201.9</ele>
        <time>2026-09-08T17:41:18+00:00</time>
      </trkpt>
      <trkpt lat="49.616215" lon="0.776023">
        <ele>202.3</ele>
        <time>2026-09-08T17:41:48+00:00</time>
      </trkpt>
      <trkpt lat="49.616245" lon="0.775983">
        <ele>202.9</ele>
        <time>2026-09-08T17:42:18+00:00</time>
      </trkpt>
      <trkpt lat="49.616264" lon="0.776022">
        <ele>202.2</ele>
        <time>2026-09-08T17:42:49+00:00</time>
      </trkpt>
      <trkpt lat="49.616291" lon="0.77602">
        <ele>202.3</ele>
        <time>2026-09-08T17:43:13+00:00</time>
      </trkpt>
      <trkpt lat="49.616283" lon="0.776039">
        <ele>202.4</ele>
        <time>2026-09-08T17:43:21+00:00</time>
      </trkpt>
      <trkpt lat="49.616264" lon="0.775939">
        <ele>203</ele>
        <time>2026-09-08T17:43:55+00:00</time>
      </trkpt>
      <trkpt lat="49.616196" lon="0.775941">
        <ele>203.2</ele>
        <time>2026-09-08T17:44:25+00:00</time>
      </trkpt>
      <trkpt lat="49.61618" lon="0.775948">
        <ele>203.4</ele>
        <time>2026-09-08T17:44:48+00:00</time>
      </trkpt>
      <trkpt lat="49.616219" lon="0.775968">
        <ele>203.9</ele>
        <time>2026-09-08T17:45:20+00:00</time>
      </trkpt>
      <trkpt lat="49.616238" lon="0.775947">
        <ele>203.2</ele>
        <time>2026-09-08T17:45:50+00:00</time>
      </trkpt>
      <trkpt lat="49.616226" lon="0.775903">
        <ele>203.2</ele>
        <time>2026-09-08T17:46:20+00:00</time>
      </trkpt>
      <trkpt lat="49.616169" lon="0.775882">
        <ele>203.9</ele>
        <time>2026-09-08T17:46:51+00:00</time>
      </trkpt>
      <trkpt lat="49.616177" lon="0.775817">
        <ele>204.6</ele>
        <time>2026-09-08T17:47:15+00:00</time>
      </trkpt>
      <trkpt lat="49.616196" lon="0.775806">
        <ele>204.9</ele>
        <time>2026-09-08T17:47:23+00:00</time>
      </trkpt>
      <trkpt lat="49.614693" lon="0.774345">
        <ele>204.3</ele>
        <time>2026-09-08T17:47:57+00:00</time>
      </trkpt>
      <trkpt lat="49.613052" lon="0.773508">
        <ele>203.9</ele>
        <time>2026-09-08T17:48:27+00:00</time>
      </trkpt>
      <trkpt lat="49.611717" lon="0.775247">
        <ele>201.1</ele>
        <time>2026-09-08T17:48:52+00:00</time>
      </trkpt>
      <trkpt lat="49.609997" lon="0.771526">
        <ele>198</ele>
        <time>2026-09-08T17:49:33+00:00</time>
      </trkpt>
      <trkpt lat="49.608509" lon="0.767546">
        <ele>196.8</ele>
        <time>2026-09-08T17:50:08+00:00</time>
      </trkpt>
      <trkpt lat="49.607975" lon="0.767034">
        <ele>195</ele>
        <time>2026-09-08T17:50:37+00:00</time>
      </trkpt>
      <trkpt lat="49.607975" lon="0.76702">
        <ele>195.4</ele>
        <time>2026-09-08T17:51:09+00:00</time>
      </trkpt>
      <trkpt lat="49.607975" lon="0.766976">
        <ele>195.8</ele>
        <time>2026-09-08T17:51:39+00:00</time>
      </trkpt>
      <trkpt lat="49.607994" lon="0.766975">
        <ele>196.2</ele>
        <time>2026-09-08T17:52:10+00:00</time>
      </trkpt>
      <trkpt lat="49.607994" lon="0.766975">
        <ele>196.6</ele>
        <time>2026-09-08T17:52:34+00:00</time>
      </trkpt>
      <trkpt lat="49.607994" lon="0.766975">
        <ele>197.1</ele>
        <time>2026-09-08T17:53:04+00:00</time>
      </trkpt>
      <trkpt lat="49.607986" lon="0.767027">
        <ele>196.7</ele>
        <time>2026-09-08T17:53:35+00:00</time>
      </trkpt>
      <trkpt lat="49.607986" lon="0.767027">
        <ele>196.4</ele>
        <time>2026-09-08T17:54:05+00:00</time>
      </trkpt>
      <trkpt lat="49.607998" lon="0.767018">
        <ele>196.4</ele>
        <time>2026-09-08T17:54:36+00:00</time>
      </trkpt>
      <trkpt lat="49.607998" lon="0.767039">
        <ele>196</ele>
        <time>2026-09-08T17:55:05+00:00</time>
      </trkpt>
      <trkpt lat="49.607998" lon="0.767071">
        <ele>195.1</ele>
        <time>2026-09-08T17:55:30+00:00</time>
      </trkpt>
      <trkpt lat="49.607979" lon="0.767051">
        <ele>193.9</ele>
        <time>2026-09-08T17:55:37+00:00</time>
      </trkpt>
      <trkpt lat="49.607979" lon="0.767051">
        <ele>193</ele>
        <time>2026-09-08T17:56:12+00:00</time>
      </trkpt>
      <trkpt lat="49.608273" lon="0.767393">
        <ele>191.9</ele>
        <time>2026-09-08T17:56:42+00:00</time>
      </trkpt>
      <trkpt lat="49.608437" lon="0.767671">
        <ele>191</ele>
        <time>2026-09-08T17:57:06+00:00</time>
      </trkpt>
      <trkpt lat="49.605183" lon="0.761775">
        <ele>186.4</ele>
        <time>2026-09-08T17:57:48+00:00</time>
      </trkpt>
      <trkpt lat="49.604889" lon="0.751122">
        <ele>177.9</ele>
        <time>2026-09-08T17:58:23+00:00</time>
      </trkpt>
      <trkpt lat="49.606861" lon="0.742521">
        <ele>174.4</ele>
        <time>2026-09-08T17:58:53+00:00</time>
      </trkpt>
      <trkpt lat="49.607635" lon="0.737256">
        <ele>172.7</ele>
        <time>2026-09-08T17:59:24+00:00</time>
      </trkpt>
      <trkpt lat="49.610821" lon="0.733241">
        <ele>173.7</ele>
        <time>2026-09-08T17:59:54+00:00</time>
      </trkpt>
    </trkseg>
  </trk>
  <trk>
    <name><![CDATA[OsmAnd 2026-09-08 20]]></name>
    <trkseg>
      <trkpt lat="49.612812" lon="0.738669">
        <ele>177.5</ele>
        <time>2026-09-08T18:00:24+00:00</time>
      </trkpt>
      <trkpt lat="49.614273" lon="0.741491">
        <ele>180.4</ele>
        <time>2026-09-08T18:00:46+00:00</time>
      </trkpt>
      <trkpt lat="49.615398" lon="0.74404">
        <ele>181.4</ele>
        <time>2026-09-08T18:01:20+00:00</time>
      </trkpt>
      <trkpt lat="49.616341" lon="0.743787">
        <ele>183.9</ele>
        <time>2026-09-08T18:01:51+00:00</time>
      </trkpt>
      <trkpt lat="49.616379" lon="0.743873">
        <ele>186.1</ele>
        <time>2026-09-08T18:02:20+00:00</time>
      </trkpt>
      <trkpt lat="49.616405" lon="0.743886">
        <ele>187.3</ele>
        <time>2026-09-08T18:02:38+00:00</time>
      </trkpt>
      <trkpt lat="49.616409" lon="0.743839">
        <ele>188.7</ele>
        <time>2026-09-08T18:02:56+00:00</time>
      </trkpt>
      <trkpt lat="49.616425" lon="0.743839">
        <ele>189.6</ele>
        <time>2026-09-08T18:03:27+00:00</time>
      </trkpt>
      <trkpt lat="49.616398" lon="0.743886">
        <ele>189.5</ele>
        <time>2026-09-08T18:03:57+00:00</time>
      </trkpt>
      <trkpt lat="49.616398" lon="0.743729">
        <ele>189.9</ele>
        <time>2026-09-08T18:04:21+00:00</time>
      </trkpt>
      <trkpt lat="49.616352" lon="0.7439">
        <ele>189</ele>
        <time>2026-09-08T18:04:33+00:00</time>
      </trkpt>
      <trkpt lat="49.616455" lon="0.743819">
        <ele>185.8</ele>
        <time>2026-09-08T18:04:47+00:00</time>
      </trkpt>
      <trkpt lat="49.616482" lon="0.743879">
        <ele>188.6</ele>
        <time>2026-09-08T18:05:01+00:00</time>
      </trkpt>
      <trkpt lat="49.616562" lon="0.743795">
        <ele>192.4</ele>
        <time>2026-09-08T18:05:17+00:00</time>
      </trkpt>
      <trkpt lat="49.616608" lon="0.743811">
        <ele>195.4</ele>
        <time>2026-09-08T18:05:32+00:00</time>
      </trkpt>
      <trkpt lat="49.616577" lon="0.743803">
        <ele>193.9</ele>
        <time>2026-09-08T18:05:47+00:00</time>
      </trkpt>
    </trkseg>
  </trk>
</gpx>
